[{"OBJECT_NAME":"STARLINK-1810","OBJECT_ID":"2020-073AR","EPOCH":"2026-03-10T00:00:02.999808","MEAN_MOTION":15.46905484,"ECCENTRICITY":0.00036204,"INCLINATION":53.0474,"RA_OF_ASC_NODE":230.4969,"ARG_OF_PERICENTER":174.4348,"MEAN_ANOMALY":86.5459,"EPHEMERIS_TYPE":0,"CLASSIFICATION_TYPE":"U","NORAD_CAT_ID":46709,"ELEMENT_SET_NO":999,"REV_AT_EPOCH":575,"BSTAR":0.002131862,"MEAN_MOTION_DOT":0.00110175,"MEAN_MOTION_DDOT":0},{"OBJECT_NAME":"ICEYE-X5","OBJECT_ID":"2019-038C","EPOCH":"2026-03-10T00:10:40.445184","MEAN_MOTION":15.47605863,"ECCENTRICITY":0.00060957,"INCLINATION":97.8842,"RA_OF_ASC_NODE":114.3267,"ARG_OF_PERICENTER":240.5643,"MEAN_ANOMALY":119.4998,"EPHEMERIS_TYPE":0,"CLASSIFICATION_TYPE":"U","NORAD_CAT_ID":44389,"ELEMENT_SET_NO":999,"REV_AT_EPOCH":36758,"BSTAR":0.00078999629,"MEAN_MOTION_DOT":0.00040808,"MEAN_MOTION_DDOT":0}]
